{
  "type": "FeatureCollection",
  "features": [
    {
      "type": "Feature",
      "properties": {
        "norad_id": 32275,
        "name": "COSMOS 2433 (720)",
        "group": "glo-ops",
        "lat": 64.76782183723061,
        "lon": 68.82296088608305,
        "alt_km": 19135.727582293515,
        "timestamp": "2025-12-05T05:43:15.370485+00:00",
        "meta_object_name": "COSMOS 2433 (720)",
        "meta_object_id": "2007-052A",
        "meta_epoch": "2025-12-03T16:54:04.921632",
        "meta_mean_motion": 2.13103907,
        "meta_eccentricity": 0.00055343,
        "meta_inclination": 65.6881,
        "meta_ra_of_asc_node": 322.5094,
        "meta_arg_of_pericenter": 252.6226,
        "meta_mean_anomaly": 107.3209,
        "meta_ephemeris_type": 0,
        "meta_classification_type": "U",
        "meta_norad_cat_id": 32275,
        "meta_element_set_no": 999,
        "meta_rev_at_epoch": 14089,
        "meta_bstar": 0,
        "meta_mean_motion_dot": -4.1e-07,
        "meta_mean_motion_ddot": 0,
        "tle_line1": "1 32275U 07052A   25337.70422363 -.00000041  00000+0  00000+0 0  9994",
        "tle_line2": "2 32275  65.6881 322.5094 0005534 252.6226 107.3209  2.13103907140892"
      },
      "geometry": {
        "type": "Point",
        "coordinates": [
          68.82296088608305,
          64.76782183723061
        ]
      }
    },
    {
      "type": "Feature",
      "properties": {
        "norad_id": 32276,
        "name": "COSMOS 2432 (719)",
        "group": "glo-ops",
        "lat": 37.163346476949066,
        "lon": -17.400237452884475,
        "alt_km": 19125.502878678708,
        "timestamp": "2025-12-05T05:43:15.370509+00:00",
        "meta_object_name": "COSMOS 2432 (719)",
        "meta_object_id": "2007-052B",
        "meta_epoch": "2025-12-04T17:08:15.006048",
        "meta_mean_motion": 2.13103047,
        "meta_eccentricity": 0.0011258,
        "meta_inclination": 65.7035,
        "meta_ra_of_asc_node": 322.5994,
        "meta_arg_of_pericenter": 311.684,
        "meta_mean_anomaly": 47.4656,
        "meta_ephemeris_type": 0,
        "meta_classification_type": "U",
        "meta_norad_cat_id": 32276,
        "meta_element_set_no": 999,
        "meta_rev_at_epoch": 14093,
        "meta_bstar": 0,
        "meta_mean_motion_dot": -4.6e-07,
        "meta_mean_motion_ddot": 0,
        "tle_line1": "1 32276U 07052B   25338.71406257 -.00000046  00000+0  00000+0 0  9996",
        "tle_line2": "2 32276  65.7035 322.5994 0011258 311.6840  47.4656  2.13103047140932"
      },
      "geometry": {
        "type": "Point",
        "coordinates": [
          -17.400237452884475,
          37.163346476949066
        ]
      }
    },
    {
      "type": "Feature",
      "properties": {
        "norad_id": 32393,
        "name": "COSMOS 2434 (721)",
        "group": "glo-ops",
        "lat": -11.326910333734904,
        "lon": -167.07157448659277,
        "alt_km": 19130.625268881537,
        "timestamp": "2025-12-05T05:43:15.370524+00:00",
        "meta_object_name": "COSMOS 2434 (721)",
        "meta_object_id": "2007-065A",
        "meta_epoch": "2025-12-01T06:30:38.524608",
        "meta_mean_motion": 2.13101181,
        "meta_eccentricity": 0.00043375,
        "meta_inclination": 64.3147,
        "meta_ra_of_asc_node": 198.5905,
        "meta_arg_of_pericenter": 70.7489,
        "meta_mean_anomaly": 113.3938,
        "meta_ephemeris_type": 0,
        "meta_classification_type": "U",
        "meta_norad_cat_id": 32393,
        "meta_element_set_no": 999,
        "meta_rev_at_epoch": 13955,
        "meta_bstar": 0,
        "meta_mean_motion_dot": 1.02e-06,
        "meta_mean_motion_ddot": 0,
        "tle_line1": "1 32393U 07065A   25335.27127922  .00000102  00000+0  00000+0 0  9999",
        "tle_line2": "2 32393  64.3147 198.5905 0004337  70.7489 113.3938  2.13101181139555"
      },
      "geometry": {
        "type": "Point",
        "coordinates": [
          -167.07157448659277,
          -11.326910333734904
        ]
      }
    },
    {
      "type": "Feature",
      "properties": {
        "norad_id": 32395,
        "name": "COSMOS 2436 (723)",
        "group": "glo-ops",
        "lat": 50.71853065221008,
        "lon": -17.49122680020955,
        "alt_km": 19141.167387619254,
        "timestamp": "2025-12-05T05:43:15.370537+00:00",
        "meta_object_name": "COSMOS 2436 (723)",
        "meta_object_id": "2007-065C",
        "meta_epoch": "2025-12-01T01:03:25.836192",
        "meta_mean_motion": 2.13099978,
        "meta_eccentricity": 0.00177119,
        "meta_inclination": 64.3233,
        "meta_ra_of_asc_node": 198.6683,
        "meta_arg_of_pericenter": 8.6583,
        "meta_mean_anomaly": 134.2889,
        "meta_ephemeris_type": 0,
        "meta_classification_type": "U",
        "meta_norad_cat_id": 32395,
        "meta_element_set_no": 999,
        "meta_rev_at_epoch": 13950,
        "meta_bstar": 0,
        "meta_mean_motion_dot": 1e-06,
        "meta_mean_motion_ddot": 0,
        "tle_line1": "1 32395U 07065C   25335.04404903  .00000100  00000+0  00000+0 0  9991",
        "tle_line2": "2 32395  64.3233 198.6683 0017711   8.6583 134.2889  2.13099978139504"
      },
      "geometry": {
        "type": "Point",
        "coordinates": [
          -17.49122680020955,
          50.71853065221008
        ]
      }
    },
    {
      "type": "Feature",
      "properties": {
        "norad_id": 36111,
        "name": "COSMOS 2456 (730)",
        "group": "glo-ops",
        "lat": 31.624694412766537,
        "lon": -119.15258090841216,
        "alt_km": 19132.56965725259,
        "timestamp": "2025-12-05T05:43:15.370549+00:00",
        "meta_object_name": "COSMOS 2456 (730)",
        "meta_object_id": "2009-070A",
        "meta_epoch": "2025-12-02T04:31:21.819072",
        "meta_mean_motion": 2.13103415,
        "meta_eccentricity": 0.0002798,
        "meta_inclination": 64.8943,
        "meta_ra_of_asc_node": 77.6987,
        "meta_arg_of_pericenter": 298.3251,
        "meta_mean_anomaly": 26.4531,
        "meta_ephemeris_type": 0,
        "meta_classification_type": "U",
        "meta_norad_cat_id": 36111,
        "meta_element_set_no": 999,
        "meta_rev_at_epoch": 12422,
        "meta_bstar": 0,
        "meta_mean_motion_dot": -2.2e-07,
        "meta_mean_motion_ddot": 0,
        "tle_line1": "1 36111U 09070A   25336.18844698 -.00000022  00000+0  00000+0 0  9998",
        "tle_line2": "2 36111  64.8943  77.6987 0002798 298.3251  26.4531  2.13103415124220"
      },
      "geometry": {
        "type": "Point",
        "coordinates": [
          -119.15258090841216,
          31.624694412766537
        ]
      }
    },
    {
      "type": "Feature",
      "properties": {
        "norad_id": 36112,
        "name": "COSMOS 2457 (733)",
        "group": "glo-ops",
        "lat": -64.62591323823249,
        "lon": -3.4801192366226563,
        "alt_km": 19142.399680907507,
        "timestamp": "2025-12-05T05:43:15.370561+00:00",
        "meta_object_name": "COSMOS 2457 (733)",
        "meta_object_id": "2009-070B",
        "meta_epoch": "2025-12-03T00:06:14.592384",
        "meta_mean_motion": 2.13100787,
        "meta_eccentricity": 0.00049101,
        "meta_inclination": 64.8799,
        "meta_ra_of_asc_node": 77.5186,
        "meta_arg_of_pericenter": 156.2376,
        "meta_mean_anomaly": 203.7006,
        "meta_ephemeris_type": 0,
        "meta_classification_type": "U",
        "meta_norad_cat_id": 36112,
        "meta_element_set_no": 999,
        "meta_rev_at_epoch": 12424,
        "meta_bstar": 0,
        "meta_mean_motion_dot": -2.5e-07,
        "meta_mean_motion_ddot": 0,
        "tle_line1": "1 36112U 09070B   25337.00433556 -.00000025  00000+0  00000+0 0  9991",
        "tle_line2": "2 36112  64.8799  77.5186 0004910 156.2376 203.7006  2.13100787124246"
      },
      "geometry": {
        "type": "Point",
        "coordinates": [
          -3.4801192366226563,
          -64.62591323823249
        ]
      }
    },
    {
      "type": "Feature",
      "properties": {
        "norad_id": 36402,
        "name": "COSMOS 2460 (732)",
        "group": "glo-ops",
        "lat": -65.32265900466933,
        "lon": -121.30375283719101,
        "alt_km": 19129.078332669247,
        "timestamp": "2025-12-05T05:43:15.370573+00:00",
        "meta_object_name": "COSMOS 2460 (732)",
        "meta_object_id": "2010-007C",
        "meta_epoch": "2025-12-01T05:49:09.827040",
        "meta_mean_motion": 2.13106053,
        "meta_eccentricity": 0.00028009,
        "meta_inclination": 65.536,
        "meta_ra_of_asc_node": 321.162,
        "meta_arg_of_pericenter": 269.9918,
        "meta_mean_anomaly": 177.6167,
        "meta_ephemeris_type": 0,
        "meta_classification_type": "U",
        "meta_norad_cat_id": 36402,
        "meta_element_set_no": 999,
        "meta_rev_at_epoch": 12251,
        "meta_bstar": 0,
        "meta_mean_motion_dot": -2.6e-07,
        "meta_mean_motion_ddot": 0,
        "tle_line1": "1 36402U 10007C   25335.24247485 -.00000026  00000+0  00000+0 0  9994",
        "tle_line2": "2 36402  65.5360 321.1620 0002800 269.9918 177.6167  2.13106053122518"
      },
      "geometry": {
        "type": "Point",
        "coordinates": [
          -121.30375283719101,
          -65.32265900466933
        ]
      }
    }
  ]
}